OBJECT_NAME,OBJECT_ID,EPOCH,MEAN_MOTION,ECCENTRICITY,INCLINATION,RA_OF_ASC_NODE,ARG_OF_PERICENTER,MEAN_ANOMALY,EPHEMERIS_TYPE,CLASSIFICATION_TYPE,NORAD_CAT_ID,ELEMENT_SET_NO,REV_AT_EPOCH,BSTAR,MEAN_MOTION_DOT,MEAN_MOTION_DDOT
MORELOS 3,2015-056A,2026-07-20T06:27:25.144992,1.00271197,.00005984,3.2145,15.9041,159.0078,106.8910,0,U,40946,999,3961,0,-.46E-6,0
LINGQIAO VIDEO A,2015-057B,2026-07-20T06:38:58.663104,14.77429772,.00171908,97.6642,194.4503,156.6928,203.5067,0,U,40959,999,58029,.62254589E-4,.396E-5,0
LINGQIAO VIDEO B,2015-057C,2026-07-20T06:01:58.381824,14.77534658,.00173303,97.6607,195.5805,156.8163,203.3834,0,U,40960,999,58033,.9021306E-5,.16E-6,0
JILIN-1,2015-057D,2026-07-20T06:00:03.230496,14.78205769,.00176634,97.6523,198.9781,150.9418,209.2781,0,U,40961,999,58049,.60793282E-4,.393E-5,0
AEROCUBE 5C,2015-058B,2026-07-20T07:02:26.965824,14.91597120,.01327141,64.7653,159.5853,50.5093,310.7667,0,U,40965,999,37059,.18521209E-3,.2026E-4,0
AEROCUBE 7,2015-058C,2026-07-20T03:03:37.803168,14.95942376,.01224004,64.7617,141.6214,48.8705,312.2896,0,U,40966,999,37088,.23041446E-3,.2825E-4,0
FOX-1A (AO-85),2015-058D,2026-07-20T03:36:45.428256,14.91107360,.0132767,64.7727,176.5310,43.9361,317.2215,0,U,40967,999,11848,.17611163E-3,.1891E-4,0
SINOD-D 1,2015-058E,2026-07-20T02:26:16.801440,14.96117831,.01214679,64.7742,155.8196,40.2971,320.7067,0,U,40968,999,12158,.25485838E-3,.3154E-4,0
SNAP-3 ALICE,2015-058G,2026-07-19T20:13:47.659872,15.68116452,.00256958,64.7501,350.3405,345.4772,14.5636,0,U,40970,999,12199,.83269657E-3,.95788E-3,0
LMRST-SAT,2015-058H,2026-07-20T02:44:36.252672,14.90721767,.01342911,64.7735,173.0446,45.9503,315.2575,0,U,40971,999,11846,.17087734E-3,.1816E-4,0
SNAP-3 EDDIE,2015-058J,2026-07-19T19:21:02.160864,15.69580626,.00266918,64.7409,340.9392,347.9211,12.1296,0,U,40972,999,12413,.84604549E-3,.103668E-2,0
PROPCUBE 3,2015-058K,2026-07-20T06:27:48.475584,14.94441789,.01261836,64.7679,149.1590,47.0717,314.0900,0,U,40973,999,11974,.22189079E-3,.2626E-4,0
BISONSAT,2015-058L,2026-07-20T01:39:34.041600,15.17008188,.00825214,64.7580,67.2584,33.7919,326.8425,0,U,40974,999,12060,.35493567E-3,.7486E-4,0
SNAP-3 JIMI,2015-058M,2026-07-20T03:17:10.192992,15.02651100,.01082228,64.7643,115.4924,42.4177,318.5241,0,U,40975,999,11917,.2933415E-3,.4266E-4,0
PROPCUBE 1 (FLORA),2015-058N,2026-07-20T02:23:18.851136,14.89344001,.0132843,64.7718,193.2203,48.2267,313.0106,0,U,40976,999,12116,.15648887E-3,.1578E-4,0
SINOD-D 3,2015-058P,2026-07-20T05:44:41.410752,14.94199183,.01214646,64.7712,172.5910,45.2069,315.8844,0,U,40977,999,11969,.22814319E-3,.2655E-4,0
APSTAR-9,2015-059A,2026-07-20T06:57:37.378080,1.00270715,.00032034,0.0359,60.9519,123.2077,0.3190,0,U,40982,999,3945,0,-.268E-5,0
TURKSAT 4B,2015-060A,2026-07-20T06:31:17.403744,1.00269992,.0002184,0.0373,239.2756,229.5607,337.0054,0,U,40984,999,3942,0,.113E-5,0
NAVSTAR 75 (USA 265),2015-062A,2026-07-19T16:25:43.400640,2.00567075,.01130428,56.9814,29.5602,230.8576,128.1660,0,U,41019,999,7848,0,-.87E-6,0
ZHONGXING-2C,2015-063A,2026-07-19T05:30:38.488032,1.00288439,.00089545,0.3546,88.5486,107.9621,286.6179,0,U,41021,999,3930,0,-.331E-5,0
YAOGAN-28,2015-064A,2026-07-20T08:04:27.181344,15.27797583,.00119695,97.3116,338.9393,77.2584,282.9993,0,U,41026,999,59574,.14222566E-3,.3795E-4,0
GSAT-15,2015-065A,2026-07-20T03:18:31.236192,1.00272006,.00035524,0.1047,263.6200,177.2764,0.1546,0,U,41028,999,3912,0,-.26E-5,0
BADR-7 (ARABSAT-6B),2015-065B,2026-07-20T06:24:33.050016,1.00270827,.00047932,0.0474,232.9804,329.9050,217.2657,0,U,41029,999,3909,0,.143E-5,0
COSMOS 2510,2015-066A,2026-07-19T19:07:57.451872,2.00806753,.71983874,63.4727,341.6416,274.7270,13.9262,0,U,41032,999,7812,0,-.1643E-4,0
LAOSAT 1,2015-067A,2026-07-20T06:53:45.248928,1.00273785,.00027999,0.0397,239.4592,187.2037,103.3421,0,U,41034,999,3919,0,-.345E-5,0
TELSTAR 12V,2015-068A,2026-07-20T06:12:49.175136,1.00271379,.00022963,0.0155,76.3633,37.9456,261.9201,0,U,41036,999,3895,0,-.121E-5,0
YAOGAN-29,2015-069A,2026-07-20T07:18:16.001568,14.83108151,.00002321,98.0017,229.9877,6.1208,354.0008,0,U,41038,999,57553,.2753984E-4,.17E-5,0
ELEKTRO-L 2,2015-074A,2026-07-19T23:22:20.190720,1.00272222,.00008535,6.7747,70.1203,224.9166,338.8081,0,U,41105,999,3883,0,-.124E-5,0
COSMOS 2513,2015-075A,2026-07-19T04:32:21.417792,1.00273427,.00021822,0.0617,103.7293,343.7867,357.7937,0,U,41121,999,3886,0,-.144E-5,0
VELOX-CI,2015-077A,2026-07-20T04:04:46.366176,15.51033960,.00044097,14.9809,188.7466,348.0899,11.9322,0,U,41166,999,58785,.19923257E-3,.13116E-3,0
KENT RIDGE 1,2015-077B,2026-07-19T20:07:56.265024,15.23298386,.00082697,14.9808,23.1228,340.3146,19.6856,0,U,41167,999,58608,.63188931E-4,.2305E-4,0
